NORAD_CAT_ID,OBJECT_NAME,OBJECT_TYPE,EPOCH,MEAN_MOTION,ECCENTRICITY,INCLINATION,RA_OF_ASC_NODE,ARG_OF_PERICENTER,MEAN_ANOMALY,BSTAR,MEAN_MOTION_DOT,MEAN_MOTION_DDOT,TLE_LINE0,TLE_LINE1,TLE_LINE2,SEMIMAJOR_AXIS,PERIOD,APOGEE,PERIGEE,DECAYED
51994.0,STARLINK-3647,PAYLOAD,2022-04-27 14:00:01,15.73177859,0.0001506,53.2131,257.1399,56.2258,323.0575,0.0001763,0.0002417,0.0,0 STARLINK-3647,1 51994U 22025AQ  22117.58335648  .00024170  00000-0  17630-3 0  9998,2 51994  53.2131 257.1399 0001506  56.2258 323.0575 15.73177859  3697,6727.958000000001,91.534,350.837,348.81,0.0
51994.0,STARLINK-3647,PAYLOAD,2022-04-27 22:00:00,15.73208986,0.0001506999999999,53.2126,255.4909,46.4146,61.7298,2.3976e-05,2.747e-05,0.0,0 STARLINK-3647,1 51994U 22025AQ  22117.91667824  .00002747  00000-0  23976-4 0  9996,2 51994  53.2126 255.4909 0001507  46.4146  61.7298 15.73208986  9057,6727.87,91.533,350.74800000000016,348.721,0.0
51994.0,STARLINK-3647,PAYLOAD,2022-04-28 06:00:00,15.73214661,0.0001279,53.2126,253.8391,51.7388,145.3677,0.00074905,0.00105905,0.0,0 STARLINK-3647,1 51994U 22025AQ  22118.25001157  .00105905  00000-0  74905-3 0  9992,2 51994  53.2126 253.8391 0001279  51.7388 145.3677 15.73214661  9100,6727.853,91.532,350.579,348.858,0.0
51994.0,STARLINK-3647,PAYLOAD,2022-04-28 14:00:01,15.73287595,0.0001511,53.2129,252.1909,47.8485,238.2513,-0.00027487,-0.00039163,0.0,0 STARLINK-3647,1 51994U 22025AQ  22118.58334491 -.00039163  00000-0 -27487-3 0  9995,2 51994  53.2129 252.1909 0001511  47.8485 238.2513 15.73287595  9166,6727.645,91.528,350.527,348.494,0.0
51994.0,STARLINK-3647,PAYLOAD,2022-04-29 14:00:01,15.73194441,0.000166,53.2136,247.2417,41.1406,151.8802,-0.00067736,-0.00094603,0.0,0 STARLINK-3647,1 51994U 22025AQ  22119.58334491 -.00094603  00000-0 -67736-3 0  9997,2 51994  53.2136 247.2417 0001660  41.1406 151.8802 15.73194441  9313,6727.911,91.534,350.89300000000014,348.659,0.0
51994.0,STARLINK-3647,PAYLOAD,2022-04-29 22:00:00,15.73147996,0.000174,53.2131,245.5923,37.2449,244.6762,-0.00026511,-0.0003758,0.0,0 STARLINK-3647,1 51994U 22025AQ  22119.91667824 -.00037580  00000-0 -26511-3 0  9990,2 51994  53.2131 245.5923 0001740  37.2449 244.6762 15.73147996  9378,6728.043000000002,91.536,351.079,348.73800000000006,0.0
51994.0,STARLINK-3647,PAYLOAD,2022-04-30 12:00:00,15.73197459,0.0001665999999999,53.2136,242.7053,39.8155,307.5687,-0.00016632,-0.00023894,0.0,0 STARLINK-3647,1 51994U 22025AQ  22120.50001157 -.00023894  00000-0 -16632-3 0  9994,2 51994  53.2136 242.7053 0001666  39.8155 307.5687 15.73197459  9469,6727.901999999999,91.533,350.88800000000015,348.647,0.0
51994.0,STARLINK-3647,PAYLOAD,2022-04-30 14:00:01,15.73208081,0.000176,53.2135,242.2933,37.5995,62.0103,-0.00037342,-0.00052721,0.0,0 STARLINK-3647,1 51994U 22025AQ  22120.58334491 -.00052721  00000-0 -37342-3 0  9994,2 51994  53.2135 242.2933 0001760  37.5995  62.0103 15.73208081  3679,6727.871999999999,91.533,350.921,348.55300000000005,0.0
51994.0,STARLINK-3647,PAYLOAD,2022-04-30 22:00:00,15.73218753,0.0001786,53.2135,240.644,32.8255,155.7065,-2.2213e-06,-9.33e-06,0.0,0 STARLINK-3647,1 51994U 22025AQ  22120.91667824 -.00000933  00000-0 -22213-5 0  9991,2 51994  53.2135 240.6440 0001786  32.8255 155.7065 15.73218753  9523,6727.842,91.532,350.908,348.505,0.0
51994.0,STARLINK-3647,PAYLOAD,2022-05-01 06:00:00,15.73148262,0.0001747,53.2138,238.9925,39.1173,238.3481,0.00085654,0.00121069,0.0,0 STARLINK-3647,1 51994U 22025AQ  22121.25001157  .00121069  00000-0  85654-3 0  9998,2 51994  53.2138 238.9925 0001747  39.1173 238.3481 15.73148262  9583,6728.043000000002,91.536,351.083,348.732,0.0
51994.0,STARLINK-3647,PAYLOAD,2022-05-01 14:00:01,15.73249692,0.0001885,53.214,237.3449,32.6469,333.6999,-0.00076086,-0.00106298,0.0,0 STARLINK-3647,1 51994U 22025AQ  22121.58334491 -.00106298  00000-0 -76086-3 0  9992,2 51994  53.2140 237.3449 0001885  32.6469 333.6999 15.73249692  9637,6727.754,91.53,350.88699999999994,348.35,0.0
51994.0,STARLINK-3647,PAYLOAD,2022-05-01 22:00:01,15.73165609,0.0001803,53.2135,235.695,22.9526,72.4035,-6.0931e-05,-9.15e-05,0.0,0 STARLINK-3647,1 51994U 22025AQ  22121.91668981 -.00009150  00000-0 -60931-4 0  9995,2 51994  53.2135 235.6950 0001803  22.9526  72.4035 15.73165609  3701,6727.993,91.535,351.071,348.645,0.0
51994.0,STARLINK-3647,PAYLOAD,2022-05-02 06:00:00,15.73137471,0.0001575999999999,53.2136,234.0442,25.9131,158.2454,0.0006833,0.00096123,0.0,0 STARLINK-3647,1 51994U 22025AQ  22122.25001157  .00096123  00000-0  68330-3 0  9993,2 51994  53.2136 234.0442 0001576  25.9131 158.2454 15.73137471  9736,6728.073,91.537,350.999,348.87800000000016,0.0
51994.0,STARLINK-3647,PAYLOAD,2022-05-02 14:00:01,15.73206572,0.0001878,53.2135,232.3968,23.6907,249.365,0.00021794,0.00030085,0.0,0 STARLINK-3647,1 51994U 22025AQ  22122.58334491  .00030085  00000-0  21794-3 0  9997,2 51994  53.2135 232.3968 0001878  23.6907 249.3650 15.73206572  3700,6727.876,91.533,351.005,348.478,0.0
51994.0,STARLINK-3647,PAYLOAD,2022-05-02 22:00:01,15.73243006,0.0001957,53.2135,230.7468,25.0186,337.0498,-0.00031838,-0.0004515,0.0,0 STARLINK-3647,1 51994U 22025AQ  22122.91668981 -.00045150  00000-0 -31838-3 0  9999,2 51994  53.2135 230.7468 0001957  25.0186 337.0498 15.73243006  9849,6727.773,91.531,350.954,348.321,0.0
51994.0,STARLINK-3647,PAYLOAD,2022-05-03 12:00:00,15.73286918,0.0002063,53.2139,227.8601,27.1536,40.5063,-0.00067408,-0.00094528,0.0,0 STARLINK-3647,1 51994U 22025AQ  22123.50001157 -.00094528  00000-0 -67408-3 0  9996,2 51994  53.2139 227.8601 0002063  27.1536  40.5063 15.73286918  9933,6727.647,91.528,350.9,348.124,0.0
51994.0,STARLINK-3647,PAYLOAD,2022-05-03 14:00:01,15.73264213,0.0002153,53.2139,227.4481,26.2258,153.6897,-0.00048148,-0.00067844,0.0,0 STARLINK-3647,1 51994U 22025AQ  22123.58334491 -.00067844  00000-0 -48148-3 0  9995,2 51994  53.2139 227.4481 0002153  26.2258 153.6897 15.73264213  3700,6727.712,91.529,351.026,348.129,0.0
51994.0,STARLINK-3647,PAYLOAD,2022-05-03 20:00:01,15.7325238,0.0002215,53.2133,226.2109,23.9034,132.751,-0.00033636,-0.00047672,0.0,0 STARLINK-3647,1 51994U 22025AQ  22123.83334491 -.00047672  00000-0 -33636-3 0  9996,2 51994  53.2133 226.2109 0002215  23.9034 132.7510 15.73252380  9981,6727.746,91.53,351.101,348.121,0.0
51994.0,STARLINK-3647,PAYLOAD,2022-05-03 22:00:00,15.73260982,0.0002143,53.2133,225.7978,24.8115,244.0828,-0.00055223,-0.00077622,0.0,0 STARLINK-3647,1 51994U 22025AQ  22123.91667824 -.00077622  00000-0 -55223-3 0  9998,2 51994  53.2133 225.7978 0002143  24.8115 244.0828 15.73260982  3709,6727.721,91.53,351.028,348.145,0.0
51994.0,STARLINK-3647,PAYLOAD,2022-05-04 12:00:00,15.7328167,0.0002195,53.2132,222.9115,26.5677,308.0,-0.00056389,-0.00079303,0.0,0 STARLINK-3647,1 51994U 22025AQ  22124.50001157 -.00079303  00000-0 -56389-3 0  9997,2 51994  53.2132 222.9115 0002195  26.5677 308.0000 15.73281670 10099,6727.6619999999975,91.528,351.004,348.051,0.0
51994.0,STARLINK-3647,PAYLOAD,2022-05-04 14:00:01,15.73268106,0.0002267,53.2132,222.4997,25.6508,61.1693,-0.00047733,-0.00067282,0.0,0 STARLINK-3647,1 51994U 22025AQ  22124.58334491 -.00067282  00000-0 -47733-3 0  9991,2 51994  53.2132 222.4997 0002267  25.6508  61.1693 15.73268106  3709,6727.701,91.529,351.091,348.041,0.0
51994.0,STARLINK-3647,PAYLOAD,2022-05-04 20:00:01,15.7326074,0.0002343,53.2129,221.2619,22.6165,41.0214,-0.00040295,-0.00056946,0.0,0 STARLINK-3647,1 51994U 22025AQ  22124.83335648 -.00056946  00000-0 -40295-3 0  9995,2 51994  53.2129 221.2619 0002343  22.6165  41.0214 15.73260740 10142,6727.722,91.53,351.163,348.011,0.0
51994.0,STARLINK-3647,PAYLOAD,2022-05-04 22:00:01,15.73260807,0.0002277,53.2131,220.849,23.445,152.4377,-0.00049352,-0.00069503,0.0,0 STARLINK-3647,1 51994U 22025AQ  22124.91668981 -.00069503  00000-0 -49352-3 0  9999,2 51994  53.2131 220.8490 0002277  23.4450 152.4377 15.73260807  3715,6727.722,91.53,351.119,348.055,0.0
51994.0,STARLINK-3647,PAYLOAD,2022-05-05 06:00:00,15.73205192,0.0002332,53.2175,219.1804,33.179,231.3394,-2.1872e-06,-9.29e-06,0.0,0 STARLINK-3647,1 51994U 22025AQ  22125.25001157 -.00000929  00000-0 -21872-5 0  9999,2 51994  53.2175 219.1804 0002332  33.1790 231.3394 15.73205192 10215,6727.88,91.533,351.314,348.176,0.0
51994.0,STARLINK-3647,PAYLOAD,2022-05-05 14:00:01,15.73215259,0.0002525,53.2175,217.5334,22.282,331.1641,-0.00012121,-0.00017611,0.0,0 STARLINK-3647,1 51994U 22025AQ  22125.58334491 -.00017611  00000-0 -12121-3 0  9996,2 51994  53.2175 217.5334 0002525  22.2820 331.1641 15.73215259  3718,6727.852,91.532,351.415,348.01800000000014,0.0
51994.0,STARLINK-3647,PAYLOAD,2022-05-05 20:00:01,15.73256032,0.000242,53.2129,216.313,17.5458,312.9190000000001,-0.00058174,-0.00081685,0.0,0 STARLINK-3647,1 51994U 22025AQ  22125.83335648 -.00081685  00000-0 -58174-3 0  9999,2 51994  53.2129 216.3130 0002420  17.5458 312.9190 15.73256032 10309,6727.735,91.53,351.22900000000016,347.972,0.0
51994.0,STARLINK-3647,PAYLOAD,2022-05-05 22:00:00,15.73241382,0.0002347,53.213,215.9,18.0042,64.6408,-0.00049468,-0.00069608,0.0,0 STARLINK-3647,1 51994U 22025AQ  22125.91667824 -.00069608  00000-0 -49468-3 0  9999,2 51994  53.2130 215.9000 0002347  18.0042  64.6408 15.73241382  3694,6727.776999999999,91.531,351.221,348.06300000000016,0.0
51994.0,STARLINK-3647,PAYLOAD,2022-05-06 14:00:01,15.73183509,0.0002539,53.213,212.6023,20.2058,240.2763,-0.00026815,-0.00038065,0.0,0 STARLINK-3647,1 51994U 22025AQ  22126.58334491 -.00038065  00000-0 -26815-3 0  9998,2 51994  53.2130 212.6023 0002539  20.2058 240.2763 15.73183509 10429,6727.941999999999,91.534,351.515,348.099,0.0
51994.0,STARLINK-3647,PAYLOAD,2022-05-07 06:00:02,15.73185068,0.0002395,53.2132,209.3009,19.8465,58.4914,0.00046084,0.00064517,0.0,0 STARLINK-3647,1 51994U 22025AQ  22127.25002315  .00064517  00000-0  46084-3 0  9999,2 51994  53.2132 209.3009 0002395  19.8465  58.4914 15.73185068 10524,6727.938,91.534,351.414,348.191,0.0
